"description","locationCode","lat","lon","postalCode","houseNumber","city","open"
"Utrecht Terwijde","utt001","52.10017","5.04424","3451 ST","1","Vleuten","Yes"
"Eindhoven Noordzijde","ein001","51.443676","5.480101","5611 AD","2","Eindhoven","Yes"
"Brummen","bmn001","52.09104","6.14726","6971 BX",,"Brummen","Yes"
"Ermelo","eml001","52.30039","5.61434","3851 JB","46A","Ermelo","Unknown"
"Ravenstein","Rvs001","51.79464","5.637462","5371 BB","122","Ravenstein","Yes"
"Utrecht Vaartsche Rijn Oosterkade","UTVR001","52.078023","5.122392","3523 CA","103","Utrecht","Yes"
"Bergen op Zoom","bgn001","51.49517","4.29575","4611 BK","2","Bergen op Zoom","Yes"
"Lochem","lc001","52.16652","6.42582","7241 CV","1","Lochem","Yes"
"Schagen","sgn001","52.78558","4.80506","1741 GX","20","Schagen","Yes"
"Oldenzaal","odz001","52.3064","6.93371","7573 AT","9","Oldenzaal","Yes"
"Cuijk","ck001","51.72659","5.87423","5431 CE","2","Cuijk","Yes"
"Goes","gs003","51.49874","3.88823","4461 HP","21","Goes","Yes"
"Vroomshoop","vhp001","52.45748","6.57211","7681 BA",,"Vroomshoop","Yes"
"Best","bet001","51.50841","5.38957","5684 AA","3","Best","Yes"
"Winterswijk","ww001","51.96775","6.71545","7101 GH","17","Winterswijk","Yes"
"Amsterdam Bijlmer ArenA","asb003","52.311914","4.948114","1102 BT","12","Amsterdam","Yes"
"Utrecht Centraal Jaarbeursplein","ut016","52.08895","5.10756","3521 AL","14","Utrecht","Yes"
"Zuidhorn","Zh001","53.248163","6.406382","9801 AJ","5","Zuidhorn","Yes"
"Soestdijk","sd001","52.18376","5.29967","3761 AJ","3","Soest","Yes"
"Utrecht Vaartsche Rijn Oosterkade","ut019","52.078023","5.122392","3523 CA","103","Utrecht","Yes"
"Utrecht Janskerkhof","ut018","52.093019","5.121088","3512 BN","23","Utrecht","Yes"
"Utrecht Vredenburg","ut006","52.09261","5.11462","3511","104","Utrecht","Yes"
"Harderwijk","hd001","52.3377","5.619034","3844 KR","14","Harderwijk","Yes"
"Zwijndrecht","zwd002","51.81608","4.64041","3331 LL","1A","Zwijndrecht","Yes"
"Hengelo","hgl002","52.26239","6.7936","7551 CN","1","Hengelo","Yes"
"Maarheeze","mz001","51.30583","5.63594","6026 RB","2","Maarheeze","Yes"
"Den Haag HS","gv001","52.069582","4.320696","2515 BV","29","'s-Gravenhage","Yes"
"Heerhugowaard","hwd003","52.66929","4.82352","1704 WD","9","Heerhugowaard","Yes"
"Openbare fietsenstalling gemeente Groningen : Fietsenstalling Europapark","gerp002","53.20479","6.58617","9723 AK","2","Groningen","Yes"
"Deventer Boerhavelaan","dv003","52.2685","6.175444","7415 JA",,"Deventer","Yes"
"Uden","Ow002","51.66025","5.617562","5402 XA","1","Uden","Yes"
"Deventer","dv001","52.256995","6.161051","7411 HB","2","Deventer","Yes"
"Steenwijk","swk001","52.79051","6.11712","8331 GM","2","Steenwijk","Yes"
"Helmond Brandevoort","hmbv001","51.46274","5.60881","5708","135","Helmond","Yes"
"Den Helder Zuid","hdrz001","52.9321","4.76485","1785 HV","1","Den Helder","Yes"
"Leiden Centraal,Uitgang LUMC","ledn001","52.165578","4.48155","2333 CT","6","Leiden","Yes"
"Sneek","sk001","53.03254","5.65161","8601 GM","16","Sneek","Yes"
"Geldrop","Gp001","51.456343","5.787678","5664 AD","26","Geldrop","Yes"
"Oudenbosch","odb001","51.588055","4.533494","4731 GM","5","Oudenbosch","Yes"
"Anna Paulowna","ana001","52.86759","4.81198","1761 EB","21","Anna Paulowna","Yes"
"Horst Sevenum","hrt001","51.4276","6.0408","5963 AA","151","Sevenum","Yes"
"Amersfoort Schothorst","amfs001","52.1746","5.40462","3821 AB",,"Amersfoort","Yes"
"Roosendaal","rsd003","51.54078","4.46115","4702 VX","3B","Roosendaal","Yes"
"Roosendaal","rsd002","51.54078","4.46115","4702 VX","3B","Roosendaal","Yes"
"OV-ebike Arnhem Centrum","ah003","51.9834","5.90125","6811 KL","166","Arnhem","Yes"
"Gilze Rijen","gz001","51.584041","4.92483","5121 EA","1","Rijen","Yes"
"Emmen","emn001","52.78953","6.89916","7811 GC","14","Emmen","Yes"
"Halfweg Zwanenburg","hwzb001","52.38647","4.746886","1165 MT",,"Halfweg","Yes"
"Hoorn Kersenboogerd","hnk001","52.65339","5.08486","1628 PC","58-59","Hoorn","Yes"
"Hoorn","hn001","52.64469","5.05501","1621 HX","1","Hoorn","Yes"
"Rotterdam Kralingse Zoom","Rta003","51.921747","4.534107","3062 SM",,"Rotterdam","Yes"
"Rhenen","rhn001","51.957323","5.578028","3911 BK","1","Rhenen","Yes"
"Rijssen","rsn001","52.312883","6.523292","7461 AG",,"Rijssen","Yes"
"Venlo","vl001","51.365024","6.171608","5913 AA","1","Venlo","Yes"
"Ommen","omn001","52.509888","6.417246","7731 AX","35","Ommen","Yes"
"Culemborg","cl002","51.94704","5.22713","4101 NG","13","Culemborg","Yes"
"Culemborg","cl003","51.94704","5.22713","4101 NG","13","Culemborg","Yes"
"Groningen Noord","Gnn001","53.230098","6.557451","9716 EA","11","Groningen","Yes"
"Culemborg","cl001","51.94704","5.227","4101 NX","13","Culemborg","Yes"
"Voorburg","vb001","52.06676","4.35956",,,"Voorburg","Yes"
"Eindhoven Strijp-S","ehs001","51.447629","5.451376","5651GW",,"Eindhoven","Yes"
"Haarlem Spaarnwoude","hlms001","52.38213","4.670836","2031 CZ","4","Haarlem","Yes"
"Dordrecht","ddr001","51.80781","4.66785","3311 JV","1","Dordrecht","Yes"
"Soest Zuid","stz001","52.16521","5.30299","3768 ET","67","Soest","Yes"
"Haren","HRN002","53.175165","6.617819","9751 SX","1","Haren","Unknown"
"Hollandse Rading OV-fiets Carrousel","hor001","52.17815","5.17915","3739 KT","2-10","Hollandsche Rading","Yes"
"Utrecht P+R Westraven","ut007","52.05745","5.10406","3526 LA","1bis","Utrecht","Yes"
"Maastricht Randwyck","mtr001","50.837552","5.718918","6229 GR","100","Maastricht","Yes"
"Amsterdam Muiderpoort","asdm001","52.3604","4.93093","1093 JW","1B","Amsterdam","Yes"
"Castricum","cas001","52.54554","4.65954","1901 AA","43","Castricum","Yes"
"Wolfheze","wf001","52.0057","5.79213","6874 BH","5","Wolfheze","Yes"
"Meerssen","mes001","50.88299","5.75139","6231 CR","26","Meerssen","Yes"
"Maassluis","mss001","51.9168","4.2534","3143 LA","1","Maassluis","Yes"
"Weesp","wp001","52.31266","5.04215","1382 AD","2A","Weesp","Yes"
"Weert","wt003","51.2493","5.70558","6001 CH","18","Weert","Yes"
"Vierlingsbeek","vlb001","51.592165","5.99734","5821 BL","9","Vierlingsbeek","Yes"
"Amsterdam Sloterdijk","ass001","52.38903","4.83707","1043 DT","109","Amsterdam","Yes"
"Gorinchem","gr001","51.83366","4.96788","4205 AA","15","Gorinchem","Yes"
"Rotterdam Alexander","rta001","51.952114","4.551931","3067GB","50","Rotterdam","Yes"
"Valkenburg","vk001","50.86873","5.833601","6301 EZ","10","Valkenburg","Yes"
"Almelo","aml002","52.35614","6.65732","7607 GD","1","Almelo","Yes"
"Bloemendaal","bll001","52.40441","4.6273","2061 HE","18","Bloemendaal","Yes"
"Etten-Leur","etn001","51.574939","4.636251","4872  XL","1","Etten-Leur","Yes"
"Almelo","aml001","52.35614","6.65732","7607 GD","1","Almelo","Yes"
"Heiloo","hlo001","52.600106","4.700891","1851 LN","106","Heiloo","Yes"
"Utrecht Mariaplaats","ut014","52.08987","5.11841","3511 LH","2","Utrecht","Yes"
"Purmerend Overwhere","pmo001","52.51127","4.96773","1442 VS","18","Purmerend","Yes"
"Doetinchem","dtc001","51.95865","6.29575","7005 AK","8","Doetinchem","Yes"
"Lelystad Centrum","lls002","52.50801","5.47328","8232 DL","10","Lelystad","Yes"
"Nijmegen Goffert","nmgo001","51.827333","5.822722","6534 BM","388","Nijmegen","Yes"
"Zandvoort Zilt-Bikes","zvt002","52.376024","4.528921","2042 KS","33","Zandvoort","Yes"
"Zwolle Hanzeland/Zuidzijde","zl002","52.50499","6.09106","8017 JZ","30","Zwolle","Yes"
"Holten","hon001","52.283962","6.421691","7451 AZ","1","Holten","Yes"
"Boskoop","bk001","52.076315","4.646843","2771 GB",,"Boskoop","Yes"
"Breda Prinsenbeek","bdpb001","51.606061","4.72136","4822",,"Breda","Yes"
"Zwolle","zl004","52.505809","6.090895","8011 CW","13A1","Zwolle","Yes"
"Baarn","brn002","52.20787","5.28219","3743 KM","68","Baarn","Yes"
"Nijmegen","nm001","51.842825","5.853375","6512 AB","7","Nijmegen","Yes"
"Bovenkarspel-Grootebroek","bkg001","52.695309","5.236411","1611 KP","18","Bovenkarspel","Yes"
"Dieren","dr001","52.04548","6.10312","6951 AA","27","Dieren","Yes"
"Zeist","db002","52.08909","5.24928",,,"Zeist","Yes"
"Driebergen-Zeist","db001","52.065057","5.259785","3972 KA","3","Driebergen-Zeist","Yes"
"Echt","ec001","51.099873","5.878368","6101 HK","9","Echt","Yes"
"Lelystad Centrum","lls003","52.50801","5.47328","8232 DL","10","Lelystad","Yes"
"Middelburg","mdb002","51.49517","3.61768","4337 PA","22","Middelburg","Yes"
"Raalte","rat001","52.39069","6.27817","8102 EB","1","Raalte","Yes"
"Dalfsen","dl001","52.49825","6.25946","7722 HA","4","Dalfsen","Yes"
"Rotterdam Slinge","rtd904","51.874121","4.4776","3086 EZ","763","Rotterdam","Yes"
"Boxmeer","Bmr001","51.64444","5.939563","5831 CR","12","Boxmeer","Yes"
"Pijnacker","rtd906","52.019488","4.437386","2641 EJ","1","Pijnacker","Yes"
"Veenendaal","vndc002","52.020273","5.548828","3904AB","25","Veenendaal","Yes"
"Nunspeet","Ns001","52.371034","5.783895","8071 AA","18","Nunspeet","Unknown"
"Voorhout","vh001","52.2237","4.4842","2215 KN","21","Voorhout","Yes"
"Maastricht Noord","mtn001","50.871155","5.717754","6222 PB","6","Maastricht","Yes"
"Doetinchem de Huet","dtch001","51.95929","6.25961","7006 NA","2","Doetinchem","Yes"
"Delden","ddn001","52.26021","6.71482","7491 CE","5","Delden","Yes"
"Muiden P&R","wp901","52.32876","5.05091","1398 PN",,"Muiden","Yes"
"'t Harde","Hde001","52.408791","5.89185","8084 HW","3","'t Harde","Yes"
"Hengelo Gezondheidspark","hglg001","52.26183","6.76561","7555 TC","44","Hengelo","Yes"
"Bodegraven","bdg001","52.081541","4.746529",,,,"Yes"
"Utrecht Overvecht","uto001","52.109965","5.123593","3561 GG","10","Utrecht","Yes"
"Hilversum Sportpark","hvsp001","52.21633","5.18768","1213 VR","33","Hilversum","Yes"
"Delft Zuid","dtz001","51.99038","4.36439","2624 VD","3","Delft","Yes"
"Vught","Vg001","51.655932","5.292129","5261 VB","27","Vught","Yes"
"Amsterdam Zuid Zuidplein","asdz001","52.340294","4.873381","1077 XV","16E","Amsterdam","Yes"
"Heemskerk","hk001","52.49418","4.68518","1966 SP","5","Heemskerk","Yes"
"Amsterdam Zuid Mahlerplein","asdz003","52.336448","4.873438","1082 MS","1","Amsterdam","Yes"
"Utrecht Vaartsche Rijn Oosterkade","UTVR002","52.078023","5.122392","3523 CA","103","Utrecht","Yes"
"Utrecht Zuilen","utzl001","52.10341","5.08945","3534 BA","223","Utrecht","Yes"
"Alphen aan den Rijn","apn001","52.12492","4.65789","2405 DG","1","Alphen aan Den Rijn","Yes"
"Rotterdam Blaak","rtb001","51.920017","4.488638","3011 MD","172","Rotterdam","Yes"
"Vriezenveen","vz001","52.40158","6.60089","7671 JK","11","Vriezenveen","Yes"
"Zwijndrecht","zwd003","51.81608","4.64041","3331 LL","1A","Zwijndrecht","Yes"
"OV-ebike Driebergen-Zeist","db003","52.065","5.25978","3972 KA",,"Driebergen-Zeist","Yes"
"Eindhoven Noordzijde","ein001","51.443676","5.480101","5611 AD","2","Eindhoven","Yes"
"Eindhoven Zuidzijde (centrum)","ehv002","51.442199","5.480273","5611 AB","22","Eindhoven","Yes"
"Winschoten","ws001","53.13925","7.03468","9671 AN","22","Winschoten","Yes"
"Veghel","Btl003","51.614573","5.545731","6461 KS","2","Veghel","Yes"
"Naarden-Bussum","ndb002","52.28132","5.15793","1404 AM","1A","Bussum","Yes"
"Naarden-Bussum","ndb003","52.28132","5.15793","1404 AM","1A","Bussum","Yes"
"Woerden","wd001","52.08536","4.89283","3445 AD","10","Woerden","Yes"
"s-Hertogenbosch","ht001","51.69065","5.29352","5211 BJ","77","'s-Hertogenbosch","Yes"
"Baarn","brn001","52.20787","5.28219","3743 KM","68","Baarn","Yes"
"Overveen","ovn001","52.39079","4.60765","2051 EE","3","Overveen","Yes"
"Waalwijk","ht002","51.686951","5.071715",,"0","Waalwijk","Yes"
"Maarssen","mas003","52.135651","5.03139","3605 MA","2","Maarssen","Yes"
"Kerkrade Centrum","krd001","50.860941","6.057447","6461 EJ","70","Kerkrade","Yes"
"Venray","vry001","51.52736","6.01351","5807 AB","213","Venray","Yes"
"Eindhoven Strijp-S","ehb001","51.447629","5.451376","5651GW",,"Eindhoven","Yes"
"Veenendaal West","vndw001","52.028551","5.533195","3905 SH","15","Veenendaal west","Yes"
"Aalten","atn001","51.92161","6.57929",,,,"Yes"
"Haarlem Fiets Inn","hlm002","52.38763","4.63832","2011 LR","7","Haarlem","Yes"
"Bilthoven","bhv002","52.12949","5.20514","3723 HH","302","Bilthoven","Yes"
"Purmerend","pmr001","52.50387","4.95413","1441  EJ","1","Purmerend","Yes"
"Bilthoven","bhv001","52.12949","5.20514","3723 HH","302","Bilthoven","Yes"
"Hardenberg","hdb001","52.57456","6.62907","7772 CJ","28","Hardenberg","Yes"
"Beverwijk","bv002","52.47875","4.65448","1948 LC","48","Beverwijk","Yes"
"Boxtel","btl001","51.58515","5.318988","5281 GH","18","Boxtel","Yes"
"Hoogezand Sappemeer","Hgz001","53.160117","6.771075","9601 BK","2","Hoogezand","Yes"
"Heerhugowaard","hwd002","52.66929","4.82352","1704 WD","9","Heerhugowaard","Yes"
"Amersfoort Vathorst","avat001","52.19261","5.43362","3829 MJ","4","Hooglanderveen","Yes"
"Roermond","rm001","51.192425","5.99353","6041 GN","7A","Roermond","Yes"
"Krommenie-Assendelft","kma001","52.49511","4.75479","1561 KN","62","Assendelft","Yes"
"Heerlen","hrl001","50.89033","5.97444","6411 NA","2b","Heerlen","Yes"
"Schiphol","shl001","52.30963","4.76206","1118 AX","29","Luchthaven Schiphol","Yes"
"Rosmalen","rs001","51.715439","5.369477","5241 GN","3","Rosmalen","Yes"
"Utrecht P+R Science Park (De Uithof) ZS","ut908","52.08481","5.17314","3584 CT",,"Utrecht P+R Science Park","Yes"
"Vianen OV-fiets Carrousel","ut905","51.9891","5.08497","4132 GX","30","Vianen","Yes"
"Utrecht P+R Papendorp","ut904","52.07164","5.07869","3528 BL","998","Utrecht","Yes"
"Utrecht Stadhuis","ut003","52.09224","5.11957","3512 GG","9bis","Utrecht","Yes"
"P + R Utrecht Science Park (De Uithof)","ut906","52.08481","5.17314","3584 CT",,"Utrecht","Yes"
"Hengelo","hgl001","52.26239","6.7936","7551 CN","1","Hengelo","Yes"
"Arnhem Centrum","ah001","51.9835","5.90126","6811 KL","166","Arnhem","Yes"
"Utrecht Rijnsweerd","ut903","52.092506","5.152792","3584 BA",,"Utrecht","Yes"
"Alkmaar","amr001","52.63753","4.73985","1815 CB","43","Alkmaar","Yes"
"Vlaardingen Centrum","vdg001","51.903538","4.345118","3131 AJ",,"Vlaardingen","Yes"
"Rotterdam Centraal","rtd001","51.923421","4.469738","3013 AK","298","Rotterdam","Yes"
"Tilburg West Universiteit","tbu001","51.565278","5.052372","5037 CD","41","Tilburg","Yes"
"Sittard","std002","51.00126","5.85969","6131 AS","2A","Sittard","Yes"
"Leiden Centraal, Centrumzijde","ledn002","52.16557","4.48259","2313 AJ","3S","Leiden","Yes"
"Gouda Goverwelle","gdg001","52.015","4.74286","2807 PA","1","Gouda","Yes"
"Den Haag Laan van NOI","laa001","52.078837","4.34196","2593 BS","393","Den Haag","Yes"
"Alkmaar Noord","amrn002","52.64396","4.76371","1824 DX","112","Alkmaar","Yes"
"Zandvoort","zvt001","52.375859","4.531626","2041 AA",,"Zandvoort","Yes"
"Uitgeest","utg001","52.52228","4.70232","1911 MV","8","Uitgeest","Yes"
"Alkmaar Noord","amrn003","52.64396","4.76371","1824 DX","112","Alkmaar","Yes"
"Den Helder","hdr003","52.95674","4.76071","1782 BL","176","Den Helder","Yes"
"Nootdorp","gvc901","52.04758","4.415059","2631 PM","3","Nootdorp","Yes"
"Houten","htn001","52.03487","5.16663","3995 DX","80","Houten","Yes"
"Steenwijk","swk002","52.79051","6.11712","8331 GM","2","Steenwijk","Yes"
"Lage Zwaluwe","Zlw001","51.690342","4.662253","4765 SK","11","Zevenbergschen Hoek","Yes"
"Hoogeveen","hgv002","52.73309","6.47358","7901 AA","1A","Hoogeveen","Yes"
"Zutphen","zp001","52.14475","6.19585","7201 ML","12","Zutphen","Yes"
"Zwolle Hanzeland","zl003","52.50499","6.09106","8017 JZ","30","Zwolle","Yes"
"Breda Centrum","Bd003","51.59502","4.779437","4811 BN","16","Breda","Yes"
"Den Haag Mariahoeve","gvm001","52.09094","4.36933","2591 TV","20","'s-Gravenhage","Yes"
"Zaltbommel","zbm001","51.80812","5.26288","5301 GL","73","Zaltbommel","Yes"
"Barneveld Noord","bnn001","52.16085","5.59905","3771",,"Barneveld","Yes"
"Almere Centrum Landdrostdreef","alm001","52.37453","5.22016","1315KM","2","Almere","Yes"
"Zaltbommel","zbm002","51.80812","5.26288","5301 GL","73","Zaltbommel","Yes"
"Schiedam","sdm001","51.921491","4.40774","3112 HJ","8","Schiedam","Yes"
"Zoetermeer Centrum West","ztm002","52.06024","4.48739","2711 JA","40","Zoetermeer","Yes"
"Borne","bn001","52.298408","6.749042","7622 NB","2","Borne","Yes"
"Zevenbergen","Zvb001","51.641976","4.609567","4761 BG","1","Zevenbergen","Yes"
"Driehuis","drh001","52.44301","4.63908","1985 BD","46","Driehuis","Yes"
"Helmond Brouwhuis","hmbh001","51.47057","5.70168","5709","185-201","Helmond","Yes"
"Amsterdam Centraal Stationsplein","asd010","52.378482","4.897678",,,,"Yes"
"Nijmegen Heyendaal","nmh001","51.82674","5.86735","6225 EG","13","Nijmegen","Yes"
"Barendrecht","brd002","51.853419","4.554166","2991 RN","1","Barendrecht","Yes"
"Rheden","rh001","52.00973","6.03041","6991 AS","5","Rheden","Yes"
"Barendrecht","brd001","51.853419","4.554166","2991 RN","1","Barendrecht","Yes"
"Bergen op Zoom","bgn002","51.49517","4.29575","4611 BK","2","Bergen op Zoom","Yes"
"Breda Belcrum","bd002","51.596338","4.77892","4811 BN","53A","Breda","Yes"
"Amsterdam Centraal IJzijde","asd008","52.380095","4.898784","1012 AA","20","Amsterdam","Yes"
"Amsterdam Noord","asd009","52.402374","4.931019","1022 LB","23","Amsterdam","Yes"
"Obdam","obd001","52.67812","4.90919","1713 HM","3","Obdam","Yes"
"Tiel","tl003","51.88973","5.42399","4001 CP","4","Tiel","Yes"
"Tiel","tl002","51.88973","5.42399","4001 CP","4","Tiel","Yes"
"Amsterdam Centraal Oost","asd002","52.37785","4.902062","1012 AB","5","Amsterdam","Yes"
"Santpoort Noord","sptn001","52.434","4.63195","2071 TP","1","Santpoort-Noord","Yes"
"Oss West","ow001","51.758646","5.507076","4345 WZ","139","Oss","Yes"
"Tilburg Zuid","tb003","51.5602","5.086418","5038 BA","17","Tilburg","Yes"
"Groningen","gn001","53.21155","6.56701","9726 AC","13","Groningen","Yes"
"Groningen P+R Hoogkerk","gn002","53.197953","6.512867","9744 AA",,"Groningen","Yes"
"Groningen P+R Kardinge","gn003","53.238277","6.59382","9735 AA",,"Groningen","Yes"
"Utrecht Lunetten","utl001","52.06564","5.14323","3524 ZH","20","Utrecht","Yes"
"Enschede","es002","52.22169","6.88984","7511 JD","33","Enschede","Yes"
"OV-fiets - Maastricht","mt001","50.84962","5.70491","6221 BT","5","Maastricht","Yes"
"OV-ebike Maastricht","mt003","50.84962","5.70495","6221 BT","5","Maastricht","Yes"
"Putten","pt001","52.265248","5.575806","3881 AC","127","Putten","Yes"
"Houten Castellum","htnc001","52.01759","5.18015","3995 ZJ","48","Houten","Yes"
"Heerenveen","hr001","52.96098","5.91617","8441 BH","15","Heerenveen","Yes"
"Kampen","kpn002","52.56016","5.92167","8267 AB","1","Kampen","Yes"
"Veendam","Vdm001","53.104299","6.884732","9641 KG","15A","Veendam","Yes"
"Didam","did001","51.93351","6.13221","6942 EG","2","Didam","Yes"
"Gouda","gd001","52.01803","4.705","2803 AK","2","Gouda","Yes"
"Heemstede-Aerdenhout","had002","52.35899","4.60547","2106 AG","10","Heemstede","Yes"
"Rotterdam Fietspunt Wilhelminakade Prinsendam","Rtd003","51.907233","4.490302","3072 AR","32","Rotterdam","Yes"
"Rotterdam Fietspunt Marconiplein","Rtd004","51.913304","4.432742","3027 AX",,"Rotterdam","Yes"
"Enkhuizen","ekz001","52.69996","5.28904","1601 EN","3","Enkhuizen","Unknown"
"Hellendoorn/Nijverdal OV-fiets Carrousel","nvd001","52.36599","6.469563","7443 CA",,"Hellendoorn","Yes"
"Goor","go001","52.23056","6.58465","7471 AP","28","Goor","Yes"
"Sleeuwijk Tol West","GR002","51.80099","4.930693","4251 PX",,,"Yes"
"Barneveld Centrum","bnc001","52.14061","5.58947","3771 EP",,"Barneveld","Yes"
"Hoofddorp","hfd002","52.2933","4.69816","2132 HA","30","Hoofddorp","Yes"
"Zoetermeer Oost","ztmo001","52.04661","4.49133","2714 PC","190","Zoetermeer","Yes"
"Hoogeveen","hgv003","52.73309","6.47358","7901 AA","1A","Hoogeveen","Yes"
"Oisterwijk","Ot001","51.582096","5.194357","5061 HC","64","Oisterwijk","Yes"
"Duivendrecht","dvd001","52.32369","4.93629","1115 BZ","1","Duivendrecht","Yes"
"Helmond 't Hout","hmh001","51.46803","5.6313","5707 KX","1","Helmond","Yes"
"Den Haag Centraal Koningin Julianaplein","gvc021","52.08129","4.323001","2595 AA","8","Den Haag","Yes"
"Dronten","DRON001","52.532839","5.72051","8251 GM","65","Dronten","Yes"
"Heerenveen","hr002","52.96098","5.91617","8441 BH","15","Heerenveen","Yes"
"Utrecht Leidsche Rijn","utlr001","52.09918","5.06476","3541 CD","100","Utrecht","Yes"
"Pijnacker Zuid","rtd907","52.00517","4.446053","2642 RB","2A","Pijnacker","Yes"
"Sittard","std001","51.00126","5.85969","6131 AS","2A","Sittard","Yes"
"Heerlen","hrl002","50.89033","5.97444","6411 NA","2b","Heerlen","Yes"
"Diemen","dmn001","52.344897","4.968411","1111 LZ","149","Diemen","Yes"
"Boxtel - Kluis","btl004","51.584637","5.319527","5281 LA","1","Boxtel","Yes"
"Voorburg","vb002","52.06676","4.35956",,,"Voorburg","Yes"
"Kampen","kpn003","52.56016","5.92167","8267 AB","1","Kampen","Yes"
"Meppel","mp002","52.69232","6.19411","7941 HG","70","Meppel","Yes"
"Hoogkarspel","hks001","52.69046","5.18181","1611 CM",,"Hoogkarspel","Yes"
"Westervoort","wtv001","51.96271","5.96851","6931 EN","3","Westervoort","Yes"
"Bussum Zuid","bsmz001","52.26595","5.16272","1406 TK","5","Bussum","Yes"
"Amsterdam RAI","rai001","52.33725","4.89075",,"4","Amsterdam","Yes"
"Velp","vp001","51.99526","5.98094","6881 WC","31","Velp","Yes"
"Leeuwarden","lw001","53.19678","5.79636","8911 AG","1","Leeuwarden","Yes"
"Bunnik","bnk001","52.06346","5.19642","3981 AZ","20","Bunnik","Yes"
"Meppel","mp001","52.69232","6.19411","7941 HG","70","Meppel","Yes"
"Veenendaal-De klomp","klp001","52.045557","5.573761",,,,"Yes"
"Amsterdam Amstel","asa001","52.34701","4.91875","1097 DN","1C","Amsterdam","Yes"
"Geldermalsen","gdm001","51.88156","5.2703","4191 PL","1","Gelderrmalsen","Yes"
"Weert","wt001","51.2493","5.70558","6001 CH","18","Weert","Yes"
"Oss","o001","51.76537","5.53079","5348 KC","13","Oss","Yes"
"Den Helder","hdr002","52.95674","4.76071","1782 BL","176","Den Helder","Yes"
"Oss","o002","51.76537","5.53079","5348 KC","13","Oss","Yes"
"Amsterdam Lelyplein","asdl001","52.35864","4.8339","1062 HD","35","Amsterdam","No"
"Otterlo","ed901","52.10367","5.76998","6731 SB","97","Otterlo","Yes"
"Winsum","Wsm001","53.329908","6.519858","9951 BX","1","Winsum","Yes"
"Haren P+R Transferium","hrn001","53.168783","6.592465","9752 EC",,"Haren","Yes"
"Zaandam","ZD002","52.438795","4.815877","1506 MA","25","Zaandam","Yes"
"Ede-Wageningen Zuidzijde","ed001","52.026939","5.672048",,,,"Yes"
"Tilburg Reeshof","tbr001","51.574534","4.99477","5045 NE","218","Tilburg","Yes"
"OV-ebike Groningen","gn004","53.21155","6.56701","9726 AC","13","Groningen","Yes"
"Vleuten","vtn001","52.102785","5.008076","3451 AA",,"Vleuten","Yes"
"Hilversum","hvs001","52.22626","5.18076","1211 EX","1","Hilversum","Yes"
"Goes","gs002","51.49874","3.88823","4461 HP","21","Goes","Yes"
"Duiven","dvn001","51.94356","6.01459","6921 WZ","21","Duiven","Yes"
"Terborg","tbg001","51.9223","6.3644","7061 CS","1","Terborg","Yes"
"Den Haag Centraal Stichthage","gvc001","52.081295","4.323008","2595 AA","10","'s-Gravenhage","Yes"
"Varsseveld","vsv001","51.93728","6.45807","7051 CH","53","Varsseveld","Yes"
"Santpoort Zuid","sptz001","52.41917","4.63085","2082 AA","3","Santpoort-Zuid","Yes"
"Zevenaar","zv001","51.92322","6.07304","6901 BE","8","Zevenaar","Yes"
"Tilburg Noord","tb002","51.56099","5.086718","5038 BA","15","Tilburg","Yes"
"Breukelen","bkl001","52.17035","4.99054","3621 LK","85","Breukelen","Yes"
"Leiden de Vink","dvnk001","52.14708","4.45593","2331 AZ","300","Leiden","Yes"
"Deurne","dn001","51.45666","5.78722","5751 JM","17","Deurne","Yes"
"Boskoop","bsk001","52.076315","4.646843","2771 GB",,"Boskoop","Yes"
"Zoetermeer Driemanspolder","ztm003","52.04909","4.47663","2713 HX","40","Zoetermeer","Yes"
"Landgraaf","lg001","50.895754","6.020388","6372 AA","5","Landgraaf","Yes"
"Heeze-Leende","hze001","51.385103","5.569811","5591 EZ",,"Heeze-Leende","Yes"
"Olst","ost001","52.33477","6.11278","8121 CL","18","Olst","Yes"
"Beesd","bsd001","51.8993","5.1943","4153 RD","2","Beesd","Yes"
"Amsterdam Centraal West","asd007","52.379587","4.896882","1012 AB","47a","Amsterdam","Yes"
"Amersfoort Mondriaanplein","amf002","52.15446","5.37339","3812 GZ","1","Amersfoort","Yes"
"Amersfoort Centraal","amf001","52.15293","5.37481","3818 LE","29","Amersfoort","Yes"
"Almere Centrum","alm003","52.37462","5.21781","1315 KR","16","Almere","Yes"
"Utrecht Centraal Stationsplein","ut020","52.089548","5.109781","3511 GD","2","Utrecht","Yes"
"Utrecht Centraal Knoop","ut021","52.087374","5.109469","3521 AW","0","Utrecht","Yes"
"Zaandam","ZD003","52.438795","4.815877","1506 MA","25","Zaandam","Yes"
"Diemen Zuid","dmnz001","52.33042","4.95566","1112","104","Diemen","Yes"
"Beilen","bl001","52.85592","6.52117","9411 PS","11","Beilen","Yes"
"Den Dolder","dld001","52.14002","5.24177","3734 BL","148","Den Dolder","Yes"
"'s-Hertogenbosch Oost","Hto001","51.700878","5.319214","5231 XW","101","'s-Hertogenbosch","Yes"
"Assen","asn001","52.99185","6.570329","9401 LB","2","Assen","Yes"
"Vlissingen","vs001","51.44385","3.59536","4382 NN","1","Vlissingen","Yes"
"Enschede","es003","52.22169","6.88984","7511 JD","33","Enschede","Yes"
"Helmond","hm001","51.4761","5.661","5701 PE","1A","Helmond","Yes"
"Delfzijl","Dz001","53.333638","6.923716","9934 EA","1","Delfzijl","Yes"
"Sliedrecht","sdt001","51.82931","4.77768","3364 AM","4","Sliedrecht","Yes"
"Voorschoten","vst001","52.12624","4.43502","2254 TW","1","Voorschoten","Yes"
"Wijhe","wh001","52.39079","6.13632","8131 DH","48","Wijhe","Yes"
"Maarssen","MAS001","52.135651","5.03139","3605 MA","2","Maarssen","Yes"
"Hillegom","hil001","52.30292","4.56551","2182 CJ","2A","Hillegom","Yes"
"Castricum","cas002","52.54554","4.65954","1901 AA","43","Castricum","Yes"
"Hoofddorp","hfd001","52.2933","4.69816","2132 HA","30","Hoofddorp","Yes"
"Rotterdam Lombardijen","rlb001","51.87999","4.53112","3079","27","Rotterdam","Yes"
"Reuver","rv001","51.283199","6.079383","5953 HB","28","Reuver","Yes"
"Ede-Wageningen Zuidplein","ed002","52.027075","5.671595","6717 LV","1","Ede","Yes"
"Wijchen","wc001","51.81136","5.72893","6602 BN",,"Wijchen","Yes"
"Elst","est001","51.917265","5.853899","6662 AX","2","Elst","Yes"
"Apeldoorn","apd001","52.209578","5.9692","7311 NZ","12","Apeldoorn","Yes"
"Delft, Fietsenstalling","dt002","52.006473","4.35744","2611 BV","2","Delft","Yes"
"Rijswijk","rsw002","52.03988","4.31965","2283 CK","9","Rijswijk","Yes"
"Appingedam","Apg001","53.325252","6.863617","9901 CP","25","Appingedam","Yes"
"Middelburg","mdb001","51.49517","3.61768","4337 PA","22","Middelburg","Yes"
"Rijswijk","rsw001","52.03988","4.31965","2283 CK","9","Rijswijk","Yes"
